NORAD_CAT_ID,OBJECT_NAME,OBJECT_TYPE,EPOCH,MEAN_MOTION,ECCENTRICITY,INCLINATION,RA_OF_ASC_NODE,ARG_OF_PERICENTER,MEAN_ANOMALY,BSTAR,MEAN_MOTION_DOT,MEAN_MOTION_DDOT,TLE_LINE0,TLE_LINE1,TLE_LINE2,SEMIMAJOR_AXIS,PERIOD,APOGEE,PERIGEE,DECAYED
52492.0,STARLINK-3916,PAYLOAD,2023-05-04 22:01:20,15.08838396,0.0001439,53.2198,36.8339,82.7674,277.3482,3.5658e-06,-2.31e-06,0.0,0 STARLINK-3916,1 52492U 22049AT  23124.91760348 -.00000231  00000-0  35658-5 0  9998,2 52492  53.2198  36.8339 0001439  82.7674 277.3482 15.08838396 55425,6917.885,95.438,540.746,538.755,0.0
52492.0,STARLINK-3916,PAYLOAD,2023-05-05 04:22:53,15.0884405,0.0001347,53.2174,35.6465,73.9858,286.1283,8.4927e-05,1.064e-05,0.0,0 STARLINK-3916,1 52492U 22049AT  23125.18255824  .00001064  00000-0  84927-4 0  9992,2 52492  53.2174  35.6465 0001347  73.9858 286.1283 15.08844050 55465,6917.868,95.437,540.665,538.801,0.0
52492.0,STARLINK-3916,PAYLOAD,2023-05-06 01:02:54,15.08841696,0.0001085,53.2178,31.7802,96.6016,263.5099,5.1387e-05,5.3e-06,0.0,0 STARLINK-3916,1 52492U 22049AT  23126.04368339  .00000530  00000-0  51387-4 0  9995,2 52492  53.2178  31.7802 0001085  96.6016 263.5099 15.08841696 55757,6917.875,95.437,540.491,538.99,0.0
52492.0,STARLINK-3916,PAYLOAD,2023-05-07 02:29:03,15.08851469,9.35e-05,53.2176,27.0234,96.6705,263.4394,0.00018448,2.65e-05,0.0,0 STARLINK-3916,1 52492U 22049AT  23127.10351772  .00002650  00000-0  18448-3 0  9991,2 52492  53.2176  27.0234 0000935  96.6705 263.4394 15.08851469 55914,6917.845,95.437,540.357,539.064,0.0
52492.0,STARLINK-3916,PAYLOAD,2023-05-07 18:22:56,15.08831199,0.0001178,53.2174,24.0481,96.5495,263.5632,-6.7797e-05,-1.366e-05,0.0,0 STARLINK-3916,1 52492U 22049AT  23127.76593292 -.00001366  00000-0 -67797-4 0  9995,2 52492  53.2174  24.0481 0001178  96.5495 263.5632 15.08831199 56014,6917.907,95.438,540.587,538.957,0.0
52492.0,STARLINK-3916,PAYLOAD,2023-05-07 21:33:42,15.08830281,0.0001118,53.2179,23.4546,101.6747,258.4371,-4.7507e-05,-1.044e-05,0.0,0 STARLINK-3916,1 52492U 22049AT  23127.89841398 -.00001044  00000-0 -47507-4 0  9992,2 52492  53.2179  23.4546 0001118 101.6747 258.4371 15.08830281 55873,6917.91,95.438,540.549,539.002,0.0
52492.0,STARLINK-3916,PAYLOAD,2023-05-08 10:16:48,15.08838701,0.0001125,53.2191,21.0758,95.8135,264.2986,8.0845e-05,9.99e-06,0.0,0 STARLINK-3916,1 52492U 22049AT  23128.42833403  .00000999  00000-0  80845-4 0  9998,2 52492  53.2191  21.0758 0001125  95.8135 264.2986 15.08838701 56119,6917.884,95.438,540.528,538.971,0.0
52492.0,STARLINK-3916,PAYLOAD,2023-05-08 21:24:29,15.08849221,0.0001116,53.2187,18.9941,81.5908,278.521,0.00020909,3.042e-05,0.0,0 STARLINK-3916,1 52492U 22049AT  23128.89200884  .00003042  00000-0  20909-3 0  9996,2 52492  53.2187  18.9941 0001116  81.5908 278.5210 15.08849221 56020,6917.852,95.437,540.489,538.945,0.0
52492.0,STARLINK-3916,PAYLOAD,2023-05-08 22:59:52,15.08852022,0.0001125,53.2184,18.697,84.9486,275.1634,0.00027839,4.147e-05,0.0,0 STARLINK-3916,1 52492U 22049AT  23128.95824753  .00004147  00000-0  27839-3 0  9996,2 52492  53.2184  18.6970 0001125  84.9486 275.1634 15.08852022 56031,6917.844,95.437,540.487,538.93,0.0
52492.0,STARLINK-3916,PAYLOAD,2023-05-10 00:26:02,15.08848283,0.0001069,53.2184,13.9367,106.5164,253.5946,0.00029607,4.428e-05,0.0,0 STARLINK-3916,1 52492U 22049AT  23130.01808697  .00004428  00000-0  29607-3 0  9992,2 52492  53.2184  13.9367 0001069 106.5164 253.5946 15.08848283 56197,6917.855,95.437,540.46,538.981,0.0
52492.0,STARLINK-3916,PAYLOAD,2023-05-10 19:30:40,15.08842445,0.0001245,53.2186,10.3722,91.8174,268.2961,-2.759e-05,-7.27e-06,0.0,0 STARLINK-3916,1 52492U 22049AT  23130.81296900 -.00000727  00000-0 -27590-4 0  9998,2 52492  53.2186  10.3722 0001245  91.8174 268.2961 15.08842445 56316,6917.873,95.437,540.599,538.877,0.0
52492.0,STARLINK-3916,PAYLOAD,2023-05-10 22:41:26,15.08850141,0.000117,53.2186,9.7771,79.5323,280.5801,5.114e-05,5.26e-06,0.0,0 STARLINK-3916,1 52492U 22049AT  23130.94544505  .00000526  00000-0  51140-4 0  9992,2 52492  53.2186   9.7771 0001170  79.5323 280.5801 15.08850141 56499,6917.849,95.437,540.524,538.905,0.0
52492.0,STARLINK-3916,PAYLOAD,2023-05-11 22:32:14,15.08835788,0.0001113,53.2186,5.3138,87.9607,272.1512,-4.8099e-05,-1.053e-05,0.0,0 STARLINK-3916,1 52492U 22049AT  23131.93905599 -.00001053  00000-0 -48099-4 0  9993,2 52492  53.2186   5.3138 0001113  87.9607 272.1512 15.08835788 56646,6917.893,95.438,540.528,538.988,0.0
52492.0,STARLINK-3916,PAYLOAD,2023-05-12 17:36:52,15.08839887,9.74e-05,53.2177,1.7497,95.5037,264.6067,-1.876e-06,-3.18e-06,0.0,0 STARLINK-3916,1 52492U 22049AT  23132.73393587 -.00000318  00000-0 -18760-5 0  9996,2 52492  53.2177   1.7497 0000974  95.5037 264.6067 15.08839887 56601,6917.881,95.438,540.42,539.072,0.0
52492.0,STARLINK-3916,PAYLOAD,2023-05-12 23:58:24,15.08846604,9.78e-05,53.2179,0.5604,94.4453,265.6651,7.6318e-05,9.27e-06,0.0,0 STARLINK-3916,1 52492U 22049AT  23132.99888967  .00000927  00000-0  76318-4 0  9991,2 52492  53.2179   0.5604 0000978  94.4453 265.6651 15.08846604 56801,6917.86,95.437,540.402,539.049,0.0
52492.0,STARLINK-3916,PAYLOAD,2023-05-13 20:38:25,15.08838795,0.0001329,53.2195,356.6962,109.8018,250.3118,1.9094e-05,1.6e-07,0.0,0 STARLINK-3916,1 52492U 22049AT  23133.86001836  .00000016  00000-0  19094-4 0  9997,2 52492  53.2195 356.6962 0001329 109.8018 250.3118 15.08838795 56777,6917.884,95.438,540.668,538.83,0.0
52492.0,STARLINK-3916,PAYLOAD,2023-05-14 01:24:34,15.08845228,0.0001087,53.2182,355.802,92.8027,267.309,0.00014071,1.953e-05,0.0,0 STARLINK-3916,1 52492U 22049AT  23134.05873212  .00001953  00000-0  14071-3 0  9994,2 52492  53.2182 355.8020 0001087  92.8027 267.3090 15.08845228 56968,6917.864,95.437,540.481,538.977,0.0
52492.0,STARLINK-3916,PAYLOAD,2023-05-14 14:07:40,15.08841285,0.0001113,53.2182,353.4235,90.5733,269.5386,3.8817e-05,3.3e-06,0.0,0 STARLINK-3916,1 52492U 22049AT  23134.58865845  .00000330  00000-0  38817-4 0  9998,2 52492  53.2182 353.4235 0001113  90.5733 269.5386 15.08841285 57040,6917.876,95.437,540.511,538.972,0.0
52492.0,STARLINK-3916,PAYLOAD,2023-05-14 20:29:12,15.08839765,0.0001239,53.219,352.2342,77.7949,282.3182,5.6761e-05,6.16e-06,0.0,0 STARLINK-3916,1 52492U 22049AT  23134.85361922  .00000616  00000-0  56761-4 0  9990,2 52492  53.2190 352.2342 0001239  77.7949 282.3182 15.08839765 56923,6917.881,95.438,540.603,538.889,0.0
52492.0,STARLINK-3916,PAYLOAD,2023-05-14 23:39:58,15.08842918,0.0001205,53.2183,351.6386,78.7168,281.396,6.4213e-05,7.34e-06,0.0,0 STARLINK-3916,1 52492U 22049AT  23134.98609604  .00000734  00000-0  64213-4 0  9998,2 52492  53.2183 351.6386 0001205  78.7168 281.3960 15.08842918 56942,6917.871,95.437,540.57,538.903,0.0
52492.0,STARLINK-3916,PAYLOAD,2023-05-15 20:19:59,15.08841885,0.0001168,53.2179,347.7719,84.6027,275.5098,3.041e-05,1.96e-06,0.0,0 STARLINK-3916,1 52492U 22049AT  23135.84721790  .00000196  00000-0  30410-4 0  9999,2 52492  53.2179 347.7719 0001168  84.6027 275.5098 15.08841885 57233,6917.875,95.437,540.548,538.932,0.0
52492.0,STARLINK-3916,PAYLOAD,2023-05-16 13:49:14,15.08839399,0.0001258,53.2179,344.5011,82.3588,277.7547,5.9352e-05,6.57e-06,0.0,0 STARLINK-3916,1 52492U 22049AT  23136.57585827  .00000657  00000-0  59352-4 0  9997,2 52492  53.2179 344.5011 0001258  82.3588 277.7547 15.08839399 57184,6917.882,95.438,540.617,538.877,0.0
52492.0,STARLINK-3916,PAYLOAD,2023-05-16 20:10:46,15.08844598,0.0001133,53.2182,343.3114,85.383,274.7291,5.4082e-05,5.73e-06,0.0,0 STARLINK-3916,1 52492U 22049AT  23136.84081429  .00000573  00000-0  54082-4 0  9998,2 52492  53.2182 343.3114 0001133  85.3830 274.7291 15.08844598 57229,6917.866,95.437,540.515,538.948,0.0
52492.0,STARLINK-3916,PAYLOAD,2023-05-17 02:32:18,15.08851827,0.0001159,53.2183,342.1221,83.9336,276.1788,0.00010332,1.357e-05,0.0,0 STARLINK-3916,1 52492U 22049AT  23137.10576722  .00001357  00000-0  10332-3 0  9993,2 52492  53.2183 342.1221 0001159  83.9336 276.1788 15.08851827 57421,6917.844,95.437,540.511,538.907,0.0
52492.0,STARLINK-3916,PAYLOAD,2023-05-17 04:07:42,15.08833225,0.0001308,53.2181,341.8251,76.5721,283.5417,-5.52e-05,-1.166e-05,0.0,0 STARLINK-3916,1 52492U 22049AT  23137.17202334 -.00001166  00000-0 -55200-4 0  9999,2 52492  53.2181 341.8251 0001308  76.5721 283.5417 15.08833225 57434,6917.901,95.438,540.671,538.861,0.0
52492.0,STARLINK-3916,PAYLOAD,2023-05-17 18:26:10,15.0883814,0.0001159,53.2183,339.1483,89.7652,270.3474,8.1564e-05,1.01e-05,0.0,0 STARLINK-3916,1 52492U 22049AT  23137.76817797  .00001010  00000-0  81564-4 0  9997,2 52492  53.2183 339.1483 0001159  89.7652 270.3474 15.08838140 57524,6917.886,95.438,540.553,538.949,0.0
52492.0,STARLINK-3916,PAYLOAD,2023-05-17 20:01:33,15.08839626,0.0001179,53.2184,338.8506,91.6793,268.4334,0.0001003,1.309e-05,0.0,0 STARLINK-3916,1 52492U 22049AT  23137.83441712  .00001309  00000-0  10030-3 0  9995,2 52492  53.2184 338.8506 0001179  91.6793 268.4334 15.08839626 57373,6917.882,95.438,540.562,538.931,0.0
52492.0,STARLINK-3916,PAYLOAD,2023-05-18 00:47:42,15.08845192,0.0001154,53.2175,337.9592,88.0975,272.0149,0.00018433,2.647e-05,0.0,0 STARLINK-3916,1 52492U 22049AT  23138.03313572  .00002647  00000-0  18433-3 0  9991,2 52492  53.2175 337.9592 0001154  88.0975 272.0149 15.08845192 57407,6917.865,95.437,540.528,538.931,0.0
52492.0,STARLINK-3916,PAYLOAD,2023-05-18 19:52:20,15.08837411,0.0001197,53.2175,334.3912,82.402,277.7108,5.9278e-06,-1.93e-06,0.0,0 STARLINK-3916,1 52492U 22049AT  23138.82802055 -.00000193  00000-0  59278-5 0  9996,2 52492  53.2175 334.3912 0001197  82.4020 277.7108 15.08837411 57682,6917.888,95.438,540.581,538.925,0.0
52492.0,STARLINK-3916,PAYLOAD,2023-05-19 16:32:22,15.08827627,0.0001223,53.2174,330.5249,84.5997,275.5135,0.0005302,8.157e-05,0.0,0 STARLINK-3916,1 52492U 22049AT  23139.68914735  .00008157  00000-0  53020-3 0  9994,2 52492  53.2174 330.5249 0001223  84.5997 275.5135 15.08827627 57817,6917.918,95.438,540.629,538.937,0.0
